GLOBALSTAR M040         
1 25622U 99004B   25017.36816341 -.00000061  00000+0  23639-3 0  9999
2 25622  51.9903 156.6162 0001768  88.7567 296.7928 12.61997967196215
GLOBALSTAR M036         
1 25623U 99004C   25017.10830755  .00000040  00000+0  17855-2 0  9995
2 25623  51.9969 278.5328 0011318 120.3783  22.5481 11.86589687161045
GLOBALSTAR M022         
1 25649U 99012A   25017.31039531 -.00000051  00000+0  42493-3 0  9998
2 25649  52.0068 341.0532 0001946 231.5581 276.9387 12.02494464158228
GLOBALSTAR M041         
1 25650U 99012B   25017.28453694 -.00000080  00000+0  73915-4 0  9992
2 25650  51.9987 217.9761 0002870  45.3529 314.7541 11.96670016160219
GLOBALSTAR M046         
1 25651U 99012C   25017.53961182 -.00000001  00000+0  97053-3 0  9998
2 25651  52.0072 296.0652 0002152 332.8168 202.8985 12.09406663165438
GLOBALSTAR M037         
1 25652U 99012D   25017.13362762 -.00000040  00000+0  35516-3 0  9993
2 25652  52.0009 284.0773 0001272 195.0073 312.5488 12.62433045192199
